[
    {
        "Altitude(m)": 612513.8961095767,
        "Argument of Periapsis(deg)": 0.0,
        "Eccentricity": 0.0,
        "Inclination(deg)": 60.0,
        "Latitude(deg)": -28.13584839546033,
        "Longitude(deg)": 82.91313040118264,
        "Mean Anomaly(deg)": -147.27270000000004,
        "RAAN(deg)": 345.0,
        "Satellite Name": "Test1 1531",
        "Satellite Number": 1531,
        "Semi-Major Axis(m)": 6980739.136638005,
        "Time(s)": 0
    },
    {
        "Altitude(m)": 612708.2636090675,
        "Argument of Periapsis(deg)": 0.00010418945913296404,
        "Eccentricity": 0.0,
        "Inclination(deg)": 60.0,
        "Latitude(deg)": -28.647587384661424,
        "Longitude(deg)": 83.27036072469659,
        "Mean Anomaly(deg)": -146.65259385453817,
        "RAAN(deg)": 344.99957995086027,
        "Satellite Name": "Test1 1531",
        "Satellite Number": 1531,
        "Semi-Major Axis(m)": 6980739.136638005,
        "Time(s)": 10
    },
    {
        "Altitude(m)": 612903.4577927403,
        "Argument of Periapsis(deg)": 0.0002083789182659281,
        "Eccentricity": 0.0,
        "Inclination(deg)": 60.0,
        "Latitude(deg)": -29.15808622518916,
        "Longitude(deg)": 83.63145825777228,
        "Mean Anomaly(deg)": -146.03248770907635,
        "RAAN(deg)": 344.99915990172053,
        "Satellite Name": "Test1 1531",
        "Satellite Number": 1531,
        "Semi-Major Axis(m)": 6980739.136638005,
        "Time(s)": 20
    },
    {
        "Altitude(m)": 613099.407450688,
        "Argument of Periapsis(deg)": 0.00031256837739889213,
        "Eccentricity": 0.0,
        "Inclination(deg)": 60.0,
        "Latitude(deg)": -29.66730784821461,
        "Longitude(deg)": 83.99653447058245,
        "Mean Anomaly(deg)": -145.41238156361453,
        "RAAN(deg)": 344.9987398525808,
        "Satellite Name": "Test1 1531",
        "Satellite Number": 1531,
        "Semi-Major Axis(m)": 6980739.136638005,
        "Time(s)": 30
    },
    {
        "Altitude(m)": 613296.0408911569,
        "Argument of Periapsis(deg)": 0.0004167578365318562,
        "Eccentricity": 0.0,
        "Inclination(deg)": 60.0,
        "Latitude(deg)": -30.175214194150634,
        "Longitude(deg)": 84.36570382071267,
        "Mean Anomaly(deg)": -144.79227541815268,
        "RAAN(deg)": 344.99831980344106,
        "Satellite Name": "Test1 1531",
        "Satellite Number": 1531,
        "Semi-Major Axis(m)": 6980739.136638005,
        "Time(s)": 40
    },
    {
        "Altitude(m)": 613493.2859722329,
        "Argument of Periapsis(deg)": 0.0005209472956648203,
        "Eccentricity": 0.0,
        "Inclination(deg)": 60.0,
        "Latitude(deg)": -30.681766174143807,
        "Longitude(deg)": 84.73908281084978,
        "Mean Anomaly(deg)": -144.1721692726908,
        "RAAN(deg)": 344.9978997543013,
        "Satellite Name": "Test1 1531",
        "Satellite Number": 1531,
        "Semi-Major Axis(m)": 6980739.136638005,
        "Time(s)": 50
    },
    {
        "Altitude(m)": 613691.070133771,
        "Argument of Periapsis(deg)": 0.0006251367547977843,
        "Eccentricity": 0.0,
        "Inclination(deg)": 60.0,
        "Latitude(deg)": -31.186923630226588,
        "Longitude(deg)": 85.11679055945682,
        "Mean Anomaly(deg)": -143.55206312722896,
        "RAAN(deg)": 344.99747970516154,
        "Satellite Name": "Test1 1531",
        "Satellite Number": 1531,
        "Semi-Major Axis(m)": 6980739.136638005,
        "Time(s)": 60
    },
    {
        "Altitude(m)": 613889.3204294478,
        "Argument of Periapsis(deg)": 0.0007293262139307483,
        "Eccentricity": 0.0,
        "Inclination(deg)": 60.0,
        "Latitude(deg)": -31.69064529408941,
        "Longitude(deg)": 85.49894937139601,
        "Mean Anomaly(deg)": -142.93195698176717,
        "RAAN(deg)": 344.99705965602186,
        "Satellite Name": "Test1 1531",
        "Satellite Number": 1531,
        "Semi-Major Axis(m)": 6980739.136638005,
        "Time(s)": 70
    },
    {
        "Altitude(m)": 614087.9635590193,
        "Argument of Periapsis(deg)": 0.0008335156730637124,
        "Eccentricity": 0.0,
        "Inclination(deg)": 60.0,
        "Latitude(deg)": -32.192888744435756,
        "Longitude(deg)": 85.88568379544299,
        "Mean Anomaly(deg)": -142.31185083630533,
        "RAAN(deg)": 344.99663960688207,
        "Satellite Name": "Test1 1531",
        "Satellite Number": 1531,
        "Semi-Major Axis(m)": 6980739.136638005,
        "Time(s)": 80
    },
    {
        "Altitude(m)": 614286.9259007012,
        "Argument of Periapsis(deg)": 0.0009377051321966765,
        "Eccentricity": 0.0,
        "Inclination(deg)": 60.0,
        "Latitude(deg)": -32.69361036287943,
        "Longitude(deg)": 86.27712119422341,
        "Mean Anomaly(deg)": -141.69174469084345,
        "RAAN(deg)": 344.99621955774234,
        "Satellite Name": "Test1 1531",
        "Satellite Number": 1531,
        "Semi-Major Axis(m)": 6980739.136638005,
        "Time(s)": 90
    },
    {
        "Altitude(m)": 614486.1335436831,
        "Argument of Periapsis(deg)": 0.0010418945913296407,
        "Eccentricity": 0.0,
        "Inclination(deg)": 60.0,
        "Latitude(deg)": -33.192765288349236,
        "Longitude(deg)": 86.67339231346546,
        "Mean Anomaly(deg)": -141.07163854538172,
        "RAAN(deg)": 344.9957995086026,
        "Satellite Name": "Test1 1531",
        "Satellite Number": 1531,
        "Semi-Major Axis(m)": 6980739.136638005,
        "Time(s)": 100
    },
    {
        "Altitude(m)": 614685.5123207705,
        "Argument of Periapsis(deg)": 0.0011460840504626045,
        "Eccentricity": 0.0,
        "Inclination(deg)": 60.0,
        "Latitude(deg)": -33.69030736996406,
        "Longitude(deg)": 87.07463033743097,
        "Mean Anomaly(deg)": -140.4515323999198,
        "RAAN(deg)": 344.99537945946287,
        "Satellite Name": "Test1 1531",
        "Satellite Number": 1531,
        "Semi-Major Axis(m)": 6980739.136638005,
        "Time(s)": 110
    },
    {
        "Altitude(m)": 614884.9878410975,
        "Argument of Periapsis(deg)": 0.0012502735095955685,
        "Eccentricity": 0.0,
        "Inclination(deg)": 60.0,
        "Latitude(deg)": -34.186189118344444,
        "Longitude(deg)": 87.48097145597558,
        "Mean Anomaly(deg)": -139.83142625445805,
        "RAAN(deg)": 344.99495941032313,
        "Satellite Name": "Test1 1531",
        "Satellite Number": 1531,
        "Semi-Major Axis(m)": 6980739.136638005,
        "Time(s)": 120
    },
    {
        "Altitude(m)": 615084.4855229604,
        "Argument of Periapsis(deg)": 0.0013544629687285324,
        "Eccentricity": 0.0,
        "Inclination(deg)": 60.0,
        "Latitude(deg)": -34.680361655329165,
        "Longitude(deg)": 87.89255543003736,
        "Mean Anomaly(deg)": -139.2113201089962,
        "RAAN(deg)": 344.99453936118334,
        "Satellite Name": "Test1 1531",
        "Satellite Number": 1531,
        "Semi-Major Axis(m)": 6980739.136638005,
        "Time(s)": 130
    },
    {
        "Altitude(m)": 615283.9306266881,
        "Argument of Periapsis(deg)": 0.0014586524278614966,
        "Eccentricity": 0.0,
        "Inclination(deg)": 60.0,
        "Latitude(deg)": -35.17277466206637,
        "Longitude(deg)": 88.3095246423177,
        "Mean Anomaly(deg)": -138.59121396353436,
        "RAAN(deg)": 344.9941193120436,
        "Satellite Name": "Test1 1531",
        "Satellite Number": 1531,
        "Semi-Major Axis(m)": 6980739.136638005,
        "Time(s)": 140
    },
    {
        "Altitude(m)": 615483.2482875894,
        "Argument of Periapsis(deg)": 0.0015628418869944607,
        "Eccentricity": 0.0,
        "Inclination(deg)": 60.0,
        "Latitude(deg)": -35.66337632545455,
        "Longitude(deg)": 88.73202465849712,
        "Mean Anomaly(deg)": -137.97110781807254,
        "RAAN(deg)": 344.99369926290393,
        "Satellite Name": "Test1 1531",
        "Satellite Number": 1531,
        "Semi-Major Axis(m)": 6980739.136638005,
        "Time(s)": 150
    },
    {
        "Altitude(m)": 615682.3635489078,
        "Argument of Periapsis(deg)": 0.0016670313461274247,
        "Eccentricity": 0.0,
        "Inclination(deg)": 60.0,
        "Latitude(deg)": -36.1521132829093,
        "Longitude(deg)": 89.16020478566553,
        "Mean Anomaly(deg)": -137.3510016726107,
        "RAAN(deg)": 344.99327921376414,
        "Satellite Name": "Test1 1531",
        "Satellite Number": 1531,
        "Semi-Major Axis(m)": 6980739.136638005,
        "Time(s)": 160
    },
    {
        "Altitude(m)": 615881.2013948302,
        "Argument of Periapsis(deg)": 0.0017712208052603888,
        "Eccentricity": 0.0,
        "Inclination(deg)": 60.0,
        "Latitude(deg)": -36.63893056543839,
        "Longitude(deg)": 89.5942171146068,
        "Mean Anomaly(deg)": -136.73089552714885,
        "RAAN(deg)": 344.9928591646244,
        "Satellite Name": "Test1 1531",
        "Satellite Number": 1531,
        "Semi-Major Axis(m)": 6980739.136638005,
        "Time(s)": 170
    },
    {
        "Altitude(m)": 616079.6867834957,
        "Argument of Periapsis(deg)": 0.001875410264393353,
        "Eccentricity": 0.0,
        "Inclination(deg)": 60.0,
        "Latitude(deg)": -37.123771539011614,
        "Longitude(deg)": 90.0342170711377,
        "Mean Anomaly(deg)": -136.11078938168708,
        "RAAN(deg)": 344.9924391154847,
        "Satellite Name": "Test1 1531",
        "Satellite Number": 1531,
        "Semi-Major Axis(m)": 6980739.136638005,
        "Time(s)": 180
    },
    {
        "Altitude(m)": 616277.744679963,
        "Argument of Periapsis(deg)": 0.0019795997235263173,
        "Eccentricity": 0.0,
        "Inclination(deg)": 60.0,
        "Latitude(deg)": -37.60657784421831,
        "Longitude(deg)": 90.48036396303623,
        "Mean Anomaly(deg)": -135.49068323622518,
        "RAAN(deg)": 344.99201906634494,
        "Satellite Name": "Test1 1531",
        "Satellite Number": 1531,
        "Semi-Major Axis(m)": 6980739.136638005,
        "Time(s)": 190
    }
]